{"type":"FeatureCollection","features":[{"type":"Feature","properties":{"shapeName":"Almazar","shapeISO":"","shapeID":"79887680B42148642049849","shapeGroup":"UZB","shapeType":"ADM2"},"geometry":{"type":"Polygon","coordinates":[[[69.1335,41.3155],[69.1559,41.3168],[69.1764,41.3116],[69.1742,41.3071],[69.2019,41.291],[69.2058,41.2949],[69.2091,41.2947],[69.2134,41.2967],[69.2185,41.2947],[69.2333,41.311],[69.2364,41.3142],[69.2333,41.3162],[69.2396,41.3219],[69.2109,41.3452],[69.1969,41.3626],[69.1587,41.3387],[69.1395,41.3262],[69.134,41.3191],[69.1335,41.3155]]]}},{"type":"Feature","properties":{"shapeName":"Bektemir","shapeISO":"","shapeID":"79887680B40109116454398","shapeGroup":"UZB","shapeType":"ADM2"},"geometry":{"type":"Polygon","coordinates":[[[69.256,41.1771],[69.2553,41.1706],[69.235,41.1612],[69.2299,41.1574],[69.2257,41.1508],[69.2135,41.1401],[69.2114,41.1362],[69.2144,41.1342],[69.2291,41.1356],[69.2345,41.1428],[69.2331,41.1509],[69.2297,41.154],[69.2342,41.1556],[69.2435,41.1638],[69.2535,41.1688],[69.258,41.1667],[69.2844,41.178],[69.2941,41.1868],[69.296,41.1829],[69.2985,41.1842],[69.3006,41.1836],[69.3056,41.1887],[69.309,41.1876],[69.3126,41.1885],[69.3139,41.1908],[69.3141,41.1889],[69.3157,41.1896],[69.3172,41.1886],[69.3207,41.1898],[69.3243,41.194],[69.33,41.2011],[69.3343,41.2038],[69.3355,41.2024],[69.3387,41.204],[69.3405,41.2018],[69.3472,41.2093],[69.3497,41.2088],[69.3475,41.2043],[69.3569,41.2069],[69.3612,41.2017],[69.3711,41.2075],[69.3582,41.2177],[69.3716,41.2281],[69.3706,41.2299],[69.3551,41.2329],[69.3526,41.2384],[69.345,41.2337],[69.3394,41.2325],[69.3404,41.2311],[69.3276,41.2129],[69.3228,41.2097],[69.3136,41.2078],[69.3043,41.2012],[69.2955,41.2002],[69.2907,41.2],[69.2852,41.1961],[69.2776,41.1942],[69.2648,41.1866],[69.256,41.1771]]]}},{"type":"Feature","properties":{"shapeName":"Chilanzar","shapeISO":"","shapeID":"79887680B30402232719617","shapeGroup":"UZB","shapeType":"ADM2"},"geometry":{"type":"Polygon","coordinates":[[[69.1858,41.2176],[69.1848,41.2202],[69.1957,41.2389],[69.2053,41.2456],[69.2088,41.257],[69.2128,41.2615],[69.224,41.2674],[69.2249,41.2707],[69.2307,41.2765],[69.2106,41.2778],[69.2104,41.2756],[69.2018,41.2653],[69.1926,41.2682],[69.1896,41.2666],[69.1705,41.2665],[69.1633,41.2687],[69.1644,41.2465],[69.168,41.2437],[69.164,41.2402],[69.1455,41.2355],[69.1424,41.2334],[69.1411,41.2344],[69.1374,41.2322],[69.1339,41.2332],[69.1187,41.2258],[69.1339,41.2143],[69.1368,41.2058],[69.135,41.2006],[69.1449,41.186],[69.158,41.2],[69.1858,41.2176]]]}},{"type":"Feature","properties":{"shapeName":"Mirzo Ulugbek","shapeISO":"","shapeID":"79887680B41064680481751","shapeGroup":"UZB","shapeType":"ADM2"},"geometry":{"type":"Polygon","coordinates":[[[69.2491,41.2762],[69.2523,41.2757],[69.2649,41.2723],[69.2692,41.2724],[69.2689,41.2749],[69.2764,41.2772],[69.2768,41.2805],[69.2803,41.2792],[69.2836,41.284],[69.2945,41.28],[69.3019,41.2791],[69.3116,41.2704],[69.3234,41.2775],[69.3496,41.2964],[69.3535,41.3044],[69.3604,41.3043],[69.3661,41.3063],[69.3702,41.3046],[69.3799,41.3082],[69.3798,41.3108],[69.3729,41.3205],[69.3682,41.3226],[69.3694,41.3282],[69.3665,41.3326],[69.3482,41.3272],[69.3337,41.3281],[69.3308,41.3235],[69.325,41.3207],[69.3159,41.3218],[69.3064,41.3177],[69.2989,41.3119],[69.2954,41.3129],[69.291,41.3098],[69.2877,41.3045],[69.288,41.2978],[69.2846,41.2976],[69.2801,41.3061],[69.2766,41.3047],[69.2772,41.3032],[69.2717,41.2996],[69.2733,41.2976],[69.2683,41.2955],[69.2641,41.29],[69.262,41.2836],[69.2571,41.2836],[69.2554,41.2818],[69.2523,41.2826],[69.2491,41.2762]]]}},{"type":"Feature","properties":{"shapeName":"Sergeli","shapeISO":"","shapeID":"79887680B58716268454454","shapeGroup":"UZB","shapeType":"ADM2"},"geometry":{"type":"Polygon","coordinates":[[[69.2743,41.2076],[69.2748,41.2207],[69.2834,41.2247],[69.2807,41.2286],[69.2758,41.2266],[69.2694,41.2278],[69.2572,41.2354],[69.2541,41.2357],[69.2339,41.2316],[69.207,41.2267],[69.1858,41.2176],[69.158,41.2],[69.1449,41.186],[69.1458,41.1833],[69.1508,41.1834],[69.1547,41.1807],[69.1526,41.1781],[69.1564,41.1745],[69.1596,41.1799],[69.1569,41.1826],[69.1597,41.187],[69.1706,41.1975],[69.1734,41.2021],[69.1725,41.2034],[69.1863,41.2123],[69.1878,41.2158],[69.1885,41.2084],[69.1719,41.1924],[69.1772,41.189],[69.1727,41.1812],[69.1611,41.1694],[69.1624,41.1671],[69.1727,41.1707],[69.1743,41.169],[69.1748,41.161],[69.1588,41.1544],[69.156,41.1512],[69.2055,41.1534],[69.2047,41.1465],[69.1986,41.1392],[69.2144,41.1342],[69.2114,41.1362],[69.2135,41.1401],[69.2257,41.1508],[69.2299,41.1574],[69.235,41.1612],[69.2553,41.1706],[69.256,41.1771],[69.2491,41.178],[69.2439,41.1763],[69.2347,41.1856],[69.217,41.1783],[69.2139,41.1967],[69.2064,41.1969],[69.203,41.1992],[69.1929,41.1885],[69.1848,41.2014],[69.1909,41.2077],[69.2743,41.2076]]]}},{"type":"Feature","properties":{"shapeName":"Shaykhantokhur","shapeISO":"","shapeID":"79887680B36749064688690","shapeGroup":"UZB","shapeType":"ADM2"},"geometry":{"type":"Polygon","coordinates":[[[69.1295,41.2971],[69.1259,41.2876],[69.1357,41.294],[69.1636,41.2924],[69.1622,41.2907],[69.1633,41.2687],[69.1705,41.2665],[69.1896,41.2666],[69.1926,41.2682],[69.2018,41.2653],[69.2104,41.2756],[69.2106,41.2778],[69.2307,41.2765],[69.235,41.2792],[69.2455,41.3038],[69.2333,41.311],[69.2185,41.2947],[69.2134,41.2967],[69.2091,41.2947],[69.2058,41.2949],[69.2019,41.291],[69.1742,41.3071],[69.1764,41.3116],[69.1559,41.3168],[69.1335,41.3155],[69.1324,41.3024],[69.1295,41.2971]]]}},{"type":"Feature","properties":{"shapeName":"Uchtepa","shapeISO":"","shapeID":"79887680B78178339313098","shapeGroup":"UZB","shapeType":"ADM2"},"geometry":{"type":"Polygon","coordinates":[[[69.1187,41.2258],[69.1339,41.2332],[69.1374,41.2322],[69.1411,41.2344],[69.1424,41.2334],[69.1455,41.2355],[69.164,41.2402],[69.168,41.2437],[69.1644,41.2465],[69.1633,41.2687],[69.1622,41.2907],[69.1636,41.2924],[69.1357,41.294],[69.1259,41.2876],[69.1295,41.2971],[69.1235,41.2935],[69.1225,41.2874],[69.1158,41.2789],[69.1176,41.2708],[69.1079,41.2611],[69.107,41.2579],[69.1005,41.2537],[69.1028,41.2497],[69.1012,41.2443],[69.0998,41.2445],[69.0936,41.2369],[69.094,41.2327],[69.0977,41.2338],[69.1078,41.2392],[69.1154,41.2465],[69.1169,41.2461],[69.1154,41.2434],[69.1187,41.2258]]]}},{"type":"Feature","properties":{"shapeName":"Yakkasaray","shapeISO":"","shapeID":"79887680B84205310122057","shapeGroup":"UZB","shapeType":"ADM2"},"geometry":{"type":"Polygon","coordinates":[[[69.2339,41.2316],[69.2435,41.2421],[69.2372,41.2494],[69.2424,41.2578],[69.2374,41.2673],[69.2417,41.2777],[69.235,41.2792],[69.2307,41.2765],[69.2249,41.2707],[69.224,41.2674],[69.2128,41.2615],[69.2088,41.257],[69.2053,41.2456],[69.1957,41.2389],[69.1848,41.2202],[69.1858,41.2176],[69.207,41.2267],[69.2339,41.2316]]]}},{"type":"Feature","properties":{"shapeName":"Yashnobod","shapeISO":"","shapeID":"79887680B98736397831484","shapeGroup":"UZB","shapeType":"ADM2"},"geometry":{"type":"Polygon","coordinates":[[[69.3394,41.2325],[69.3368,41.2348],[69.3328,41.2513],[69.3439,41.2541],[69.3446,41.2568],[69.3389,41.2647],[69.336,41.2645],[69.3326,41.2692],[69.3211,41.2717],[69.3234,41.2775],[69.3116,41.2704],[69.3019,41.2791],[69.2945,41.28],[69.2836,41.284],[69.2803,41.2792],[69.2768,41.2805],[69.2764,41.2772],[69.2689,41.2749],[69.2692,41.2724],[69.2649,41.2723],[69.2523,41.2757],[69.2745,41.2526],[69.3043,41.2012],[69.3136,41.2078],[69.3228,41.2097],[69.3276,41.2129],[69.3404,41.2311],[69.3394,41.2325]]]}},{"type":"Feature","properties":{"shapeName":"Yunusabad","shapeISO":"","shapeID":"79887680B16922356170962","shapeGroup":"UZB","shapeType":"ADM2"},"geometry":{"type":"Polygon","coordinates":[[[69.1969,41.3626],[69.2109,41.3452],[69.2396,41.3219],[69.2333,41.3162],[69.2364,41.3142],[69.2333,41.311],[69.2455,41.3038],[69.235,41.2792],[69.2417,41.2777],[69.2491,41.2762],[69.2523,41.2826],[69.2554,41.2818],[69.2571,41.2836],[69.262,41.2836],[69.2641,41.29],[69.2683,41.2955],[69.2733,41.2976],[69.2717,41.2996],[69.2772,41.3032],[69.2766,41.3047],[69.2801,41.3061],[69.2846,41.2976],[69.288,41.2978],[69.2877,41.3045],[69.291,41.3098],[69.2954,41.3129],[69.2989,41.3119],[69.3064,41.3177],[69.3159,41.3218],[69.2957,41.3356],[69.289,41.3502],[69.2862,41.3517],[69.2536,41.3511],[69.2306,41.3651],[69.2021,41.3659],[69.1969,41.3626]]]}}]}